LEMUR-2-VALHALLA        
1 58900U 24022B   26201.14500511  .00008865  00000+0  21985-3 0  9994
2 58900  97.4081  51.5501 0008700   7.0064 353.1302 15.40578281137348
LEMUR-2-CAEL            
1 58903U 24022E   26201.12620993  .00009971  00000+0  23614-3 0  9992
2 58903  97.4057  52.5269 0006635 350.9129   9.1997 15.41954913137410
LEMUR-2-JOHNNYTRUONG    
1 59146U 24043BA  26200.95644810  .00027316  00000+0  30422-3 0  9997
2 59146  97.5403 354.7548 0003779  80.2627 279.9058 15.62815408133155
LEMUR-2-TOMATOKECHUP    
1 60471U 24149D   26201.12877644  .00006122  00000+0  17339-3 0  9994
2 60471  97.3786 283.2728 0003435 112.8454 247.3153 15.36642534107228
LEMUR-2-STELLA          
1 60533U 24149BT  26201.10203979  .00006259  00000+0  36401-3 0  9997
2 60533  97.6727 283.7150 0001313 123.2741 236.8616 15.12429957105475
LEMUR-2-MARHISYAM       
1 60536U 24149BW  26201.02869355  .00005186  00000+0  30733-3 0  9997
2 60536  97.6872 284.1228 0002249  62.5064 297.6394 15.11830054105440
LEMUR-2-AHMED-ASRAR     
1 60576U 24149DN  26200.76583083  .00005706  00000+0  32372-3 0  9991
2 60576  97.6999 286.0796 0001623 184.9138 175.2077 15.13363648105497
LEMUR-2-LLOYD           
1 60577U 24149DP  26201.18565672  .00005536  00000+0  34655-3 0  9990
2 60577  97.6730 282.3442 0004237  58.5473 301.6170 15.09799638105373
LEMUR-2-SQUIRRELCOMM    
1 60578U 24149DQ  26201.11554998  .00003364  00000+0  22599-3 0  9994
2 60578  97.6698 281.9289 0004008 303.1916  56.8926 15.07473407105366
LEMUR-2-SIERRINI        
1 60579U 24149DR  26200.79363214  .00005840  00000+0  34803-3 0  9999
2 60579  97.6829 283.5430 0006100  79.2614 280.9302 15.11564081105384
LEMUR-2-WILSON          
1 62694U 25009CP  26201.15382143  .00001295  00000+0  12278-3 0  9990
2 62694  97.7016 279.0405 0001652 294.9075  65.1974 14.95286988 82288
LEMUR-2-STAR-FOX        
1 62696U 25009CR  26201.05388370  .00004061  00000+0  30736-3 0  9992
2 62696  97.6899 282.4263 0001657  22.9564 337.1735 15.02876982 82493
LEMUR-2-ARIANNA         
1 62699U 25009CU  26200.18679380  .00003837  00000+0  29064-3 0  9994
2 62699  97.6840 281.3147 0002074  35.4388 324.6975 15.02872906 82363
LEMUR-2-ALISIA          
1 62706U 25009DB  26201.15676515  .00004003  00000+0  30028-3 0  9996
2 62706  97.6960 283.1117 0004854 115.7667 244.4059 15.03215642105112
LEMUR-2-ROUNDTRIPPER    
1 62711U 25009DG  26201.15846321  .00004177  00000+0  30454-3 0  9991
2 62711  97.7241 283.7997 0004459  55.0162 305.1482 15.04274415 82584
LEMUR-2-MYNAMEISJEFF    
1 62712U 25009DH  26200.75786488  .00003916  00000+0  28586-3 0  9997
2 62712  97.7289 283.8001 0004369  88.5252 271.6474 15.04261876 82524
